NORAD_CAT_ID,OBJECT_NAME,OBJECT_TYPE,EPOCH,MEAN_MOTION,ECCENTRICITY,INCLINATION,RA_OF_ASC_NODE,ARG_OF_PERICENTER,MEAN_ANOMALY,BSTAR,MEAN_MOTION_DOT,MEAN_MOTION_DDOT,TLE_LINE0,TLE_LINE1,TLE_LINE2,SEMIMAJOR_AXIS,PERIOD,APOGEE,PERIGEE,DECAYED
51124.0,STARLINK-3389,PAYLOAD,2023-06-03 17:34:10,15.08839631,9.94e-05,53.2155,152.9943,84.6886,275.4219,1.9574e-05,2.4e-07,0.0,0 STARLINK-3389,1 51124U 22005W   23154.73207156  .00000024  00000-0  19574-4 0  9994,2 51124  53.2155 152.9943 0000994  84.6886 275.4219 15.08839631 76277,6917.882,95.438,540.434,539.059,0.0
51124.0,STARLINK-3389,PAYLOAD,2023-06-04 01:31:06,15.08836427,0.0001009,53.2159,151.508,83.535,276.5757,1.7688e-05,-6e-08,0.0,0 STARLINK-3389,1 51124U 22005W   23155.06327419 -.00000006  00000-0  17688-4 0  9991,2 51124  53.2159 151.5080 0001009  83.5350 276.5757 15.08836427 77438,6917.891,95.438,540.454,539.058,0.0
51124.0,STARLINK-3389,PAYLOAD,2023-06-04 09:28:02,15.08837866,0.0001026,53.2158,150.0209,85.1045,275.0064,2.5541e-05,1.19e-06,0.0,0 STARLINK-3389,1 51124U 22005W   23155.39447340  .00000119  00000-0  25541-4 0  9994,2 51124  53.2158 150.0209 0001026  85.1045 275.0064 15.08837866 76377,6917.887,95.438,540.462,539.042,0.0
51124.0,STARLINK-3389,PAYLOAD,2023-06-05 04:32:40,15.08839887,0.0001039,53.2159,146.4524,84.6177,275.4934,2.9472e-05,1.81e-06,0.0,0 STARLINK-3389,1 51124U 22005W   23156.18935232  .00000181  00000-0  29472-4 0  9990,2 51124  53.2159 146.4524 0001039  84.6177 275.4934 15.08839887 77603,6917.881,95.438,540.465,539.027,0.0
51124.0,STARLINK-3389,PAYLOAD,2023-06-05 06:08:03,15.08840412,0.0001049,53.2158,146.155,85.5748,274.5364,3.9083e-05,3.34e-06,0.0,0 STARLINK-3389,1 51124U 22005W   23156.25559165  .00000334  00000-0  39083-4 0  9994,2 51124  53.2158 146.1550 0001049  85.5748 274.5364 15.08840412 76504,6917.879,95.438,540.47,539.018,0.0
51124.0,STARLINK-3389,PAYLOAD,2023-06-05 18:51:08,15.08836445,0.0001066,53.2157,143.7767,83.7597,276.3516,3.2971e-05,2.37e-06,0.0,0 STARLINK-3389,1 51124U 22005W   23156.78551507  .00000237  00000-0  32971-4 0  9995,2 51124  53.2157 143.7767 0001066  83.7597 276.3516 15.08836445 76585,6917.891,95.438,540.494,539.019,0.0
51124.0,STARLINK-3389,PAYLOAD,2023-06-06 09:09:36,15.08838872,0.0001076,53.2158,141.1006,82.0046,278.1069,4.8187e-05,4.79e-06,0.0,0 STARLINK-3389,1 51124U 22005W   23157.38167411  .00000479  00000-0  48187-4 0  9993,2 51124  53.2158 141.1006 0001076  82.0046 278.1069 15.08838872 77788,6917.884,95.438,540.493,539.004,0.0
51124.0,STARLINK-3389,PAYLOAD,2023-06-06 18:41:55,15.08834644,0.0001075,53.2158,139.3162,83.0121,277.0993,9.624e-06,-1.35e-06,0.0,0 STARLINK-3389,1 51124U 22005W   23157.77911893 -.00000135  00000-0  96240-5 0  9991,2 51124  53.2158 139.3162 0001075  83.0121 277.0993 15.08834644 76735,6917.897,95.438,540.505,539.018,0.0
51124.0,STARLINK-3389,PAYLOAD,2023-06-07 05:49:37,15.08838597,0.0001106,53.2159,137.2349,84.7404,275.3714,3.0029e-05,1.9e-06,0.0,0 STARLINK-3389,1 51124U 22005W   23158.24279679  .00000190  00000-0  30029-4 0  9995,2 51124  53.2159 137.2349 0001106  84.7404 275.3714 15.08838597 76808,6917.885,95.438,540.515,538.985,0.0
51124.0,STARLINK-3389,PAYLOAD,2023-06-07 23:18:52,15.08835316,0.000112,53.216,133.964,85.2395,274.8725,2.7056e-05,1.43e-06,0.0,0 STARLINK-3389,1 51124U 22005W   23158.97144047  .00000143  00000-0  27056-4 0  9999,2 51124  53.2160 133.9640 0001120  85.2395 274.8725 15.08835316 78026,6917.895,95.438,540.535,538.985,0.0
51124.0,STARLINK-3389,PAYLOAD,2023-06-08 07:15:47,15.08841075,0.0001129,53.2159,132.4772,86.855,273.2571,5.3587e-05,5.65e-06,0.0,0 STARLINK-3389,1 51124U 22005W   23159.30263661  .00000565  00000-0  53587-4 0  9997,2 51124  53.2159 132.4772 0001129  86.8550 273.2571 15.08841075 76965,6917.877,95.437,540.523,538.961,0.0
51124.0,STARLINK-3389,PAYLOAD,2023-06-08 15:12:43,15.08837938,0.0001151,53.2161,130.9904,86.9311,273.1813,3.5954e-05,2.84e-06,0.0,0 STARLINK-3389,1 51124U 22005W   23159.63383935  .00000284  00000-0  35954-4 0  9996,2 51124  53.2161 130.9904 0001151  86.9311 273.1813 15.08837938 77017,6917.887,95.438,540.548,538.955,0.0
51124.0,STARLINK-3389,PAYLOAD,2023-06-09 05:31:11,15.08838405,0.0001171,53.2161,128.3146,87.3374,272.7752,6.1465e-05,6.9e-06,0.0,0 STARLINK-3389,1 51124U 22005W   23160.22999999  .00000690  00000-0  61465-4 0  9993,2 51124  53.2161 128.3146 0001171  87.3374 272.7752 15.08838405 78212,6917.885,95.438,540.56,538.94,0.0
51124.0,STARLINK-3389,PAYLOAD,2023-06-09 21:25:03,15.0883909,0.0001226,53.2161,125.3404,85.4982,274.6151,2.3949e-05,9.3e-07,0.0,0 STARLINK-3389,1 51124U 22005W   23160.89240181  .00000093  00000-0  23949-4 0  9990,2 51124  53.2161 125.3404 0001226  85.4982 274.6151 15.08839090 77204,6917.883,95.438,540.596,538.9,0.0
51124.0,STARLINK-3389,PAYLOAD,2023-06-10 06:57:21,15.08844288,0.0001251,53.2162,123.5558,86.4197,273.6938,6.4338e-05,7.36e-06,0.0,0 STARLINK-3389,1 51124U 22005W   23161.28983705  .00000736  00000-0  64338-4 0  9991,2 51124  53.2162 123.5558 0001251  86.4197 273.6938 15.08844288 78378,6917.867,95.437,540.598,538.867,0.0
51124.0,STARLINK-3389,PAYLOAD,2023-06-11 02:01:59,15.08837555,0.0001262,53.2162,119.9872,87.1035,273.0101,5.418e-05,5.74e-06,0.0,0 STARLINK-3389,1 51124U 22005W   23162.08472155  .00000574  00000-0  54180-4 0  9996,2 51124  53.2162 119.9872 0001262  87.1035 273.0101 15.08837555 78495,6917.888,95.438,540.626,538.88,0.0
51124.0,STARLINK-3389,PAYLOAD,2023-06-11 03:37:22,15.08840718,0.0001265,53.2162,119.6894,88.5793,271.5344,3.0889e-05,2.04e-06,0.0,0 STARLINK-3389,1 51124U 22005W   23162.15096029  .00000204  00000-0  30889-4 0  9996,2 51124  53.2162 119.6894 0001265  88.5793 271.5344 15.08840718 77390,6917.878,95.438,540.618,538.868,0.0
51124.0,STARLINK-3389,PAYLOAD,2023-06-11 14:45:04,15.08839302,0.0001277,53.2163,117.608,88.2345,271.8794,3.6643e-05,2.95e-06,0.0,0 STARLINK-3389,1 51124U 22005W   23162.61464091  .00000295  00000-0  36643-4 0  9999,2 51124  53.2163 117.6080 0001277  88.2345 271.8794 15.08839302 77466,6917.883,95.438,540.631,538.864,0.0
51124.0,STARLINK-3389,PAYLOAD,2023-06-12 03:28:10,15.08835844,0.0001308,53.2162,115.2294,87.2518,272.8624,7.0375e-06,-1.76e-06,0.0,0 STARLINK-3389,1 51124U 22005W   23163.14456477 -.00000176  00000-0  70375-5 0  9997,2 51124  53.2162 115.2294 0001308  87.2518 272.8624 15.08835844 78654,6917.893,95.438,540.663,538.853,0.0
51124.0,STARLINK-3389,PAYLOAD,2023-06-13 06:29:43,15.08835996,0.0001408,53.2175,110.1747,89.1159,270.9995,2.1228e-05,5e-07,0.0,0 STARLINK-3389,1 51124U 22005W   23164.27064613  .00000050  00000-0  21228-4 0  9991,2 51124  53.2175 110.1747 0001408  89.1159 270.9995 15.08835996 78825,6917.893,95.438,540.732,538.784,0.0
51124.0,STARLINK-3389,PAYLOAD,2023-06-13 20:48:12,15.08835268,0.0001222,53.2162,107.4983,89.1042,271.009,5.1909e-05,5.38e-06,0.0,0 STARLINK-3389,1 51124U 22005W   23164.86680649  .00000538  00000-0  51909-4 0  9999,2 51124  53.2162 107.4983 0001222  89.1042 271.0090 15.08835268 77804,6917.895,95.438,540.605,538.914,0.0
51124.0,STARLINK-3389,PAYLOAD,2023-06-14 03:09:44,15.08841438,0.0001228,53.2163,106.309,88.4958,271.6175,0.00010405,1.369e-05,0.0,0 STARLINK-3389,1 51124U 22005W   23165.13176132  .00001369  00000-0  10405-3 0  9995,2 51124  53.2163 106.3090 0001228  88.4958 271.6175 15.08841438 78959,6917.876,95.437,540.591,538.891,0.0
51124.0,STARLINK-3389,PAYLOAD,2023-06-15 03:00:32,15.08834156,0.0001162,53.2165,101.8493,90.6114,269.5011,-2.0801e-05,-6.19e-06,0.0,0 STARLINK-3389,1 51124U 22005W   23166.12537293 -.00000619  00000-0 -20801-4 0  9995,2 51124  53.2165 101.8493 0001162  90.6114 269.5011 15.08834156 79106,6917.898,95.438,540.567,538.959,0.0
51124.0,STARLINK-3389,PAYLOAD,2023-06-15 04:35:55,15.08835174,0.000117,53.2167,101.5518,88.5133,271.5993,-1.0777e-05,-4.59e-06,0.0,0 STARLINK-3389,1 51124U 22005W   23166.19161224 -.00000459  00000-0 -10777-4 0  9992,2 51124  53.2167 101.5518 0001170  88.5133 271.5993 15.08835174 78000,6917.895,95.438,540.57,538.951,0.0
51124.0,STARLINK-3389,PAYLOAD,2023-06-16 01:15:55,15.08843584,0.0001176,53.2167,97.6861,85.8319,274.2807,2.5346e-05,1.16e-06,0.0,0 STARLINK-3389,1 51124U 22005W   23167.05272766  .00000116  00000-0  25346-4 0  9998,2 51124  53.2167  97.6861 0001176  85.8319 274.2807 15.08843584 79243,6917.869,95.437,540.548,538.921,0.0
51124.0,STARLINK-3389,PAYLOAD,2023-06-16 06:02:04,15.08850919,0.0001187,53.2166,96.7937,87.4006,272.7122,8.1967e-05,1.017e-05,0.0,0 STARLINK-3389,1 51124U 22005W   23167.25144044  .00001017  00000-0  81967-4 0  9999,2 51124  53.2166  96.7937 0001187  87.4006 272.7122 15.08850919 79275,6917.847,95.437,540.533,538.891,0.0
51124.0,STARLINK-3389,PAYLOAD,2023-06-16 20:20:32,15.08843646,0.0001216,53.2167,94.1172,84.1365,275.9765,0.00010991,1.462e-05,0.0,0 STARLINK-3389,1 51124U 22005W   23167.84760270  .00001462  00000-0  10991-3 0  9991,2 51124  53.2167  94.1172 0001216  84.1365 275.9765 15.08843646 78258,6917.869,95.437,540.575,538.893,0.0
51124.0,STARLINK-3389,PAYLOAD,2023-06-16 23:31:18,15.08846768,0.000127,53.2169,93.5232,79.4241,280.6895,0.00013512,1.864e-05,0.0,0 STARLINK-3389,1 51124U 22005W   23167.98008002  .00001864  00000-0  13512-3 0  9992,2 51124  53.2169  93.5232 0001270  79.4241 280.6895 15.08846768 79380,6917.86,95.437,540.603,538.846,0.0
51124.0,STARLINK-3389,PAYLOAD,2023-06-17 04:17:27,15.08854782,0.0001229,53.2167,92.6301,85.8726,274.2407,0.00019159,2.764e-05,0.0,0 STARLINK-3389,1 51124U 22005W   23168.17879178  .00002764  00000-0  19159-3 0  9997,2 51124  53.2167  92.6301 0001229  85.8726 274.2407 15.08854782 79415,6917.835,95.437,540.55,538.85,0.0
51124.0,STARLINK-3389,PAYLOAD,2023-06-17 12:14:25,15.08827554,0.0001712,53.217,91.1434,79.1703,280.9481,-2.3259e-05,-6.58e-06,0.0,0 STARLINK-3389,1 51124U 22005W   23168.51001792 -.00000658  00000-0 -23259-4 0  9993,2 51124  53.2170  91.1434 0001712  79.1703 280.9481 15.08827554 78353,6917.918,95.438,540.968,538.599,0.0
